OBJECT_NAME,OBJECT_ID,EPOCH,MEAN_MOTION,ECCENTRICITY,INCLINATION,RA_OF_ASC_NODE,ARG_OF_PERICENTER,MEAN_ANOMALY,EPHEMERIS_TYPE,CLASSIFICATION_TYPE,NORAD_CAT_ID,ELEMENT_SET_NO,REV_AT_EPOCH,BSTAR,MEAN_MOTION_DOT,MEAN_MOTION_DDOT
BEIDOU-3 M3,2018-018B,2026-01-14T03:52:47.358336,1.86231567,.00081411,56.5131,68.2347,313.2632,46.7298,0,U,43208,999,5387,0,-.59E-6,0
PAZ,2018-020A,2026-01-17T23:50:14.148384,15.19160290,.00016267,97.4447,27.5277,86.5719,273.5702,0,U,43215,999,43820,.94438848E-4,.1917E-4,0
GOES 17,2018-022A,2026-01-17T22:08:49.199424,1.00270773,.00028423,0.5498,88.5564,204.2869,67.1841,0,U,43226,999,2891,0,-.167E-5,0
HISPASAT 30W-6,2018-023A,2026-01-17T15:34:56.928000,1.00270513,.000406,0.0398,43.2158,281.1707,356.4160,0,U,43228,999,2889,0,-.2E-5,0
PODSAT,2018-023B,2026-01-16T13:21:10.554624,8.30531661,.36194291,26.8578,100.3370,272.2532,47.6883,0,U,43229,999,17995,.59454852E-3,.73164E-3,-.932883E-6
O3B FM15,2018-024A,2026-01-17T18:36:09.891936,5.00115626,.00028223,0.0454,359.3358,293.4461,67.1852,0,U,43231,999,14350,0,-.15E-6,0
O3B FM16,2018-024B,2026-01-17T05:28:05.154816,5.00115877,.0002893,0.0412,358.6348,293.4015,67.9300,0,U,43232,999,14339,0,-.16E-6,0
O3B FM14,2018-024C,2026-01-17T16:02:25.281024,5.00115597,.00028754,0.0407,356.7103,301.9628,61.2950,0,U,43233,999,14342,0,-.15E-6,0
O3B FM13,2018-024D,2026-01-01T17:49:51.434688,5.00115581,.00045717,0.0598,354.9680,285.2619,79.7172,0,U,43234,999,14272,0,-.15E-6,0
LKW-4,2018-025A,2026-01-17T21:26:36.090528,15.50384475,.00032431,97.6193,178.4888,124.0419,236.1140,0,U,43236,999,43665,.48788012E-3,.27677E-3,0
BEIDOU-3 M9,2018-029A,2026-01-15T23:44:16.945728,1.86228441,.00012303,54.3330,305.2731,316.6820,43.3310,0,U,43245,999,5306,0,-.7E-6,0
BEIDOU-3 M10,2018-029B,2026-01-17T12:50:29.588352,1.86229211,.00047227,54.3290,305.2456,10.1723,349.8664,0,U,43246,999,5307,0,-.58E-6,0
IRIDIUM 144,2018-030A,2026-01-17T21:06:23.363712,14.34218055,.00022092,86.3983,353.2343,83.2412,276.9035,0,U,43249,999,40859,.63372317E-4,.197E-5,0
IRIDIUM 149,2018-030B,2026-01-17T21:15:31.426560,14.34217667,.00021088,86.3981,353.2009,86.6246,273.5191,0,U,43250,999,40861,-.2569765E-5,.13E-6,0
IRIDIUM 157,2018-030C,2026-01-17T21:42:54.959328,14.34217562,.00021165,86.3985,353.2423,87.3045,272.8393,0,U,43251,999,40859,.73655885E-4,.226E-5,0
IRIDIUM 140,2018-030D,2026-01-17T22:10:19.310304,14.34218387,.00023064,86.3984,353.2473,84.5360,275.6098,0,U,43252,999,40865,.75652257E-4,.232E-5,0
IRIDIUM 145,2018-030E,2026-01-17T23:32:31.208928,14.34217580,.00022459,86.3985,353.1960,77.5021,282.6426,0,U,43253,999,40859,.39461244E-4,.13E-5,0
IRIDIUM 146,2018-030F,2026-01-17T21:24:39.447936,14.34217725,.00021749,86.3986,353.2460,82.4821,277.6622,0,U,43254,999,40859,.5200796E-5,.34E-6,0
IRIDIUM 148,2018-030G,2026-01-17T22:19:27.393888,14.34217666,.00019529,86.3985,353.2711,85.7986,274.3433,0,U,43255,999,40863,-.256337E-6,.19E-6,0
IRIDIUM 142,2018-030H,2026-01-17T21:33:48.109536,14.34219299,.00022421,86.3982,353.1785,77.0111,283.1335,0,U,43256,999,40859,.72190379E-4,.222E-5,0
IRIDIUM 150,2018-030J,2026-01-17T20:48:07.308000,14.34217237,.00022526,86.3986,353.3030,84.0197,276.1255,0,U,43257,999,40861,.81590308E-4,.248E-5,0
IRIDIUM 143,2018-030K,2026-01-17T23:41:39.429024,14.34218014,.00022853,86.3991,353.3395,81.5890,278.5565,0,U,43258,999,40856,.11787226E-4,.53E-6,0
GAOFEN-1 02,2018-031A,2026-01-17T23:35:00.477888,14.76431869,.00040854,98.0760,80.7755,108.4411,251.7243,0,U,43259,999,42053,.41073338E-4,.234E-5,0
GAOFEN-1 03,2018-031B,2026-01-17T23:03:10.605888,14.76418130,.00028895,98.0742,80.6269,167.8771,192.2509,0,U,43260,999,42052,.1042192E-3,.673E-5,0
GAOFEN-1 04,2018-031D,2026-01-17T22:28:26.236128,14.76432932,.00011584,98.0761,80.7762,116.7965,243.3363,0,U,43262,999,42051,.13386232E-3,.879E-5,0
SUPERBIRD-B3,2018-033A,2026-01-17T21:37:52.163616,1.00270796,.00011039,0.0493,252.0082,65.5160,286.2390,0,U,43271,999,2855,0,-.77E-6,0
HYLAS 4,2018-033B,2026-01-17T15:33:49.535136,1.00267965,.00010659,0.0187,50.3626,299.2718,327.3831,0,U,43272,999,2855,0,0,0
YAOGAN-31 01A,2018-034A,2026-01-17T22:16:15.907296,13.45442064,.02619532,63.3959,117.8763,6.9588,353.4962,0,U,43275,999,38188,.6889316E-5,-.85E-6,0
YAOGAN-31 01B,2018-034B,2026-01-17T22:17:20.048928,13.45438753,.02619639,63.3960,117.8751,6.9181,353.5349,0,U,43276,999,38200,.39750041E-4,-.61E-6,0
YAOGAN-31 01C,2018-034C,2026-01-17T22:18:44.063424,13.45425223,.02620477,63.3969,117.2153,6.6656,353.7745,0,U,43277,999,38202,-.11394796E-4,-.99E-6,0
WEINA 1B,2018-034E,2026-01-17T22:24:13.910112,13.45356676,.02617533,63.3964,118.3898,7.3889,353.0878,0,U,43279,999,38199,.46972587E-4,-.56E-6,0
