BEIDOU-3 M3             
1 43208U 18018B   26014.16165924 -.00000059  00000+0  00000+0 0  9995
2 43208  56.5131  68.2347 0008141 313.2632  46.7298  1.86231567 53872
PAZ                     
1 43215U 18020A   26017.99321931  .00001917  00000+0  94439-4 0  9999
2 43215  97.4447  27.5277 0001626  86.5719 273.5702 15.19160290438200
GOES 17                 
1 43226U 18022A   26017.92279166 -.00000167  00000+0  00000+0 0  9991
2 43226   0.5498  88.5564 0002842 204.2869  67.1841  1.00270773 28912
HISPASAT 30W-6          
1 43228U 18023A   26017.64927000 -.00000200  00000+0  00000+0 0  9998
2 43228   0.0398  43.2158 0004060 281.1707 356.4160  1.00270513 28891
PODSAT                  
1 43229U 18023B   26016.55637216  .00073164 -93288-6  59455-3 0  9993
2 43229  26.8578 100.3370 3619429 272.2532  47.6883  8.30531661179959
O3B FM15                
1 43231U 18024A   26017.77511449 -.00000015  00000+0  00000+0 0  9997
2 43231   0.0454 359.3358 0002822 293.4461  67.1852  5.00115626143505
O3B FM16                
1 43232U 18024B   26017.22783744 -.00000016  00000+0  00000+0 0  9998
2 43232   0.0412 358.6348 0002893 293.4015  67.9300  5.00115877143395
O3B FM14                
1 43233U 18024C   26017.66834816 -.00000015  00000+0  00000+0 0  9993
2 43233   0.0407 356.7103 0002875 301.9628  61.2950  5.00115597143424
O3B FM13                
1 43234U 18024D   26001.74295642 -.00000015  00000+0  00000+0 0  9994
2 43234   0.0598 354.9680 0004571 285.2619  79.7172  5.00115581142720
LKW-4                   
1 43236U 18025A   26017.89347327  .00027677  00000+0  48788-3 0  9999
2 43236  97.6193 178.4888 0003243 124.0419 236.1140 15.50384475436655
BEIDOU-3 M9             
1 43245U 18029A   26015.98908502 -.00000070  00000+0  00000+0 0  9999
2 43245  54.3330 305.2731 0001230 316.6820  43.3310  1.86228441 53065
BEIDOU-3 M10            
1 43246U 18029B   26017.53506468 -.00000058  00000+0  00000+0 0  9994
2 43246  54.3290 305.2456 0004722  10.1723 349.8664  1.86229211 53075
IRIDIUM 144             
1 43249U 18030A   26017.87943708  .00000197  00000+0  63372-4 0  9997
2 43249  86.3983 353.2343 0002209  83.2412 276.9035 14.34218055408598
IRIDIUM 149             
1 43250U 18030B   26017.88578040  .00000013  00000+0 -25698-5 0  9991
2 43250  86.3981 353.2009 0002108  86.6246 273.5191 14.34217667408614
IRIDIUM 157             
1 43251U 18030C   26017.90480277  .00000226  00000+0  73656-4 0  9990
2 43251  86.3985 353.2423 0002116  87.3045 272.8393 14.34217562408590
IRIDIUM 140             
1 43252U 18030D   26017.92383461  .00000232  00000+0  75652-4 0  9995
2 43252  86.3984 353.2473 0002306  84.5360 275.6098 14.34218387408651
IRIDIUM 145             
1 43253U 18030E   26017.98091677  .00000130  00000+0  39461-4 0  9992
2 43253  86.3985 353.1960 0002245  77.5021 282.6426 14.34217580408591
IRIDIUM 146             
1 43254U 18030F   26017.89212324  .00000034  00000+0  52008-5 0  9993
2 43254  86.3986 353.2460 0002174  82.4821 277.6622 14.34217725408596
IRIDIUM 148             
1 43255U 18030G   26017.93017817  .00000019  00000+0 -25634-6 0  9999
2 43255  86.3985 353.2711 0001952  85.7986 274.3433 14.34217666408639
IRIDIUM 142             
1 43256U 18030H   26017.89847349  .00000222  00000+0  72190-4 0  9998
2 43256  86.3982 353.1785 0002242  77.0111 283.1335 14.34219299408592
IRIDIUM 150             
1 43257U 18030J   26017.86675125  .00000248  00000+0  81590-4 0  9999
2 43257  86.3986 353.3030 0002252  84.0197 276.1255 14.34217237408611
IRIDIUM 143             
1 43258U 18030K   26017.98726191  .00000053  00000+0  11787-4 0  9998
2 43258  86.3991 353.3395 0002285  81.5890 278.5565 14.34218014408568
GAOFEN-1 02             
1 43259U 18031A   26017.98264442  .00000234  00000+0  41073-4 0  9998
2 43259  98.0760  80.7755 0004085 108.4411 251.7243 14.76431869420530
GAOFEN-1 03             
1 43260U 18031B   26017.96053942  .00000673  00000+0  10422-3 0  9999
2 43260  98.0742  80.6269 0002889 167.8771 192.2509 14.76418130420528
GAOFEN-1 04             
1 43262U 18031D   26017.93641477  .00000879  00000+0  13386-3 0  9994
2 43262  98.0761  80.7762 0001158 116.7965 243.3363 14.76432932420517
SUPERBIRD-B3            
1 43271U 18033A   26017.90129819 -.00000077  00000+0  00000+0 0  9990
2 43271   0.0493 252.0082 0001103  65.5160 286.2390  1.00270796 28554
HYLAS 4                 
1 43272U 18033B   26017.64848999  .00000000  00000+0  00000+0 0  9994
2 43272   0.0187  50.3626 0001065 299.2718 327.3831  1.00267965 28551
YAOGAN-31 01A           
1 43275U 18034A   26017.92796189 -.00000085  00000+0  68893-5 0  9996
2 43275  63.3959 117.8763 0261953   6.9588 353.4962 13.45442064381886
YAOGAN-31 01B           
1 43276U 18034B   26017.92870427 -.00000061  00000+0  39750-4 0  9998
2 43276  63.3960 117.8751 0261963   6.9181 353.5349 13.45438753382001
YAOGAN-31 01C           
1 43277U 18034C   26017.92967666 -.00000099  00000+0 -11395-4 0  9998
2 43277  63.3969 117.2153 0262047   6.6656 353.7745 13.45425223382021
WEINA 1B                
1 43279U 18034E   26017.93349433 -.00000056  00000+0  46973-4 0  9999
2 43279  63.3964 118.3898 0261753   7.3889 353.0878 13.45356676381995
